[{"OBJECT_NAME":"FLOCK 4H-27","OBJECT_ID":"2025-276BS","EPOCH":"2026-04-05T04:26:38.674176","MEAN_MOTION":15.1961938,"ECCENTRICITY":0.00014823,"INCLINATION":97.4196,"RA_OF_ASC_NODE":170.0316,"ARG_OF_PERICENTER":129.1533,"MEAN_ANOMALY":230.9833,"EPHEMERIS_TYPE":0,"CLASSIFICATION_TYPE":"U","NORAD_CAT_ID":66730,"ELEMENT_SET_NO":999,"REV_AT_EPOCH":1934,"BSTAR":0.0003606174,"MEAN_MOTION_DOT":7.617e-5,"MEAN_MOTION_DDOT":0},{"OBJECT_NAME":"FLOCK 4H-28","OBJECT_ID":"2025-276BT","EPOCH":"2026-04-05T04:40:58.211616","MEAN_MOTION":15.18820717,"ECCENTRICITY":0.00029358,"INCLINATION":97.4211,"RA_OF_ASC_NODE":169.8837,"ARG_OF_PERICENTER":258.9977,"MEAN_ANOMALY":101.0927,"EPHEMERIS_TYPE":0,"CLASSIFICATION_TYPE":"U","NORAD_CAT_ID":66731,"ELEMENT_SET_NO":999,"REV_AT_EPOCH":1933,"BSTAR":0.0004223456,"MEAN_MOTION_DOT":8.729e-5,"MEAN_MOTION_DDOT":0},{"OBJECT_NAME":"FLOCK 4H-29","OBJECT_ID":"2025-276BU","EPOCH":"2026-04-05T04:25:55.257312","MEAN_MOTION":15.18915621,"ECCENTRICITY":0.00017599,"INCLINATION":97.4199,"RA_OF_ASC_NODE":169.8805,"ARG_OF_PERICENTER":277.4147,"MEAN_ANOMALY":82.6888,"EPHEMERIS_TYPE":0,"CLASSIFICATION_TYPE":"U","NORAD_CAT_ID":66732,"ELEMENT_SET_NO":999,"REV_AT_EPOCH":1933,"BSTAR":0.00039225025,"MEAN_MOTION_DOT":8.124e-5,"MEAN_MOTION_DDOT":0},{"OBJECT_NAME":"FLOCK 4H-30","OBJECT_ID":"2025-276BV","EPOCH":"2026-04-05T04:23:48.211296","MEAN_MOTION":15.18991032,"ECCENTRICITY":0.00028374,"INCLINATION":97.4262,"RA_OF_ASC_NODE":169.9897,"ARG_OF_PERICENTER":258.4342,"MEAN_ANOMALY":101.6574,"EPHEMERIS_TYPE":0,"CLASSIFICATION_TYPE":"U","NORAD_CAT_ID":66733,"ELEMENT_SET_NO":999,"REV_AT_EPOCH":1933,"BSTAR":0.00042510935,"MEAN_MOTION_DOT":8.83e-5,"MEAN_MOTION_DDOT":0},{"OBJECT_NAME":"FLOCK 4H-31","OBJECT_ID":"2025-276BW","EPOCH":"2026-04-05T04:35:17.946816","MEAN_MOTION":15.18822771,"ECCENTRICITY":0.00021988,"INCLINATION":97.42,"RA_OF_ASC_NODE":169.8707,"ARG_OF_PERICENTER":270.2256,"MEAN_ANOMALY":89.8727,"EPHEMERIS_TYPE":0,"CLASSIFICATION_TYPE":"U","NORAD_CAT_ID":66734,"ELEMENT_SET_NO":999,"REV_AT_EPOCH":1933,"BSTAR":0.00039352503,"MEAN_MOTION_DOT":8.129e-5,"MEAN_MOTION_DDOT":0},{"OBJECT_NAME":"FLOCK 4H-32","OBJECT_ID":"2025-276BX","EPOCH":"2026-04-05T04:28:34.058784","MEAN_MOTION":15.18919424,"ECCENTRICITY":0.00032297,"INCLINATION":97.4254,"RA_OF_ASC_NODE":169.9719,"ARG_OF_PERICENTER":253.772,"MEAN_ANOMALY":106.3159,"EPHEMERIS_TYPE":0,"CLASSIFICATION_TYPE":"U","NORAD_CAT_ID":66735,"ELEMENT_SET_NO":999,"REV_AT_EPOCH":1933,"BSTAR":0.00039786591,"MEAN_MOTION_DOT":8.243e-5,"MEAN_MOTION_DDOT":0},{"OBJECT_NAME":"FLOCK 4H-33","OBJECT_ID":"2025-276BY","EPOCH":"2026-04-05T03:45:37.405152","MEAN_MOTION":15.20121484,"ECCENTRICITY":0.00026889,"INCLINATION":97.4252,"RA_OF_ASC_NODE":170.1606,"ARG_OF_PERICENTER":159.0562,"MEAN_ANOMALY":201.0784,"EPHEMERIS_TYPE":0,"CLASSIFICATION_TYPE":"U","NORAD_CAT_ID":66736,"ELEMENT_SET_NO":999,"REV_AT_EPOCH":1934,"BSTAR":0.00045698683,"MEAN_MOTION_DOT":9.816e-5,"MEAN_MOTION_DDOT":0},{"OBJECT_NAME":"FLOCK 4H-34","OBJECT_ID":"2025-276BZ","EPOCH":"2026-04-05T04:20:13.264512","MEAN_MOTION":15.19649921,"ECCENTRICITY":0.0002666,"INCLINATION":97.4265,"RA_OF_ASC_NODE":170.1522,"ARG_OF_PERICENTER":165.1928,"MEAN_ANOMALY":194.9385,"EPHEMERIS_TYPE":0,"CLASSIFICATION_TYPE":"U","NORAD_CAT_ID":66737,"ELEMENT_SET_NO":999,"REV_AT_EPOCH":1859,"BSTAR":0.00035273271,"MEAN_MOTION_DOT":7.455e-5,"MEAN_MOTION_DDOT":0},{"OBJECT_NAME":"FLOCK 4H-35","OBJECT_ID":"2025-276CA","EPOCH":"2026-04-05T05:37:32.355264","MEAN_MOTION":15.19870649,"ECCENTRICITY":0.000258,"INCLINATION":97.4228,"RA_OF_ASC_NODE":170.1689,"ARG_OF_PERICENTER":149.138,"MEAN_ANOMALY":211.0007,"EPHEMERIS_TYPE":0,"CLASSIFICATION_TYPE":"U","NORAD_CAT_ID":66738,"ELEMENT_SET_NO":999,"REV_AT_EPOCH":1864,"BSTAR":0.000397149,"MEAN_MOTION_DOT":8.458e-5,"MEAN_MOTION_DDOT":0},{"OBJECT_NAME":"FLOCK 4H-36","OBJECT_ID":"2025-276CB","EPOCH":"2026-04-05T04:34:37.349184","MEAN_MOTION":15.19614679,"ECCENTRICITY":0.00024746,"INCLINATION":97.4276,"RA_OF_ASC_NODE":170.1548,"ARG_OF_PERICENTER":177.3386,"MEAN_ANOMALY":182.7862,"EPHEMERIS_TYPE":0,"CLASSIFICATION_TYPE":"U","NORAD_CAT_ID":66739,"ELEMENT_SET_NO":999,"REV_AT_EPOCH":1934,"BSTAR":0.00038920843,"MEAN_MOTION_DOT":8.226e-5,"MEAN_MOTION_DDOT":0}]
