FLOCK 4H-27             
1 66730U 25276BS  26095.18516984  .00007617  00000+0  36062-3 0  9998
2 66730  97.4196 170.0316 0001482 129.1533 230.9833 15.19619380 19345
FLOCK 4H-28             
1 66731U 25276BT  26095.19511819  .00008729  00000+0  42235-3 0  9996
2 66731  97.4211 169.8837 0002935 258.9977 101.0927 15.18820717 19333
FLOCK 4H-29             
1 66732U 25276BU  26095.18466733  .00008124  00000+0  39225-3 0  9994
2 66732  97.4199 169.8805 0001759 277.4147  82.6888 15.18915621 19331
FLOCK 4H-30             
1 66733U 25276BV  26095.18319689  .00008830  00000+0  42511-3 0  9998
2 66733  97.4262 169.9897 0002837 258.4342 101.6574 15.18991032 19333
FLOCK 4H-31             
1 66734U 25276BW  26095.19117994  .00008129  00000+0  39353-3 0  9996
2 66734  97.4200 169.8707 0002198 270.2256  89.8727 15.18822771 19331
FLOCK 4H-32             
1 66735U 25276BX  26095.18650531  .00008243  00000+0  39787-3 0  9993
2 66735  97.4254 169.9719 0003229 253.7720 106.3159 15.18919424 19339
FLOCK 4H-33             
1 66736U 25276BY  26095.15668293  .00009816  00000+0  45699-3 0  9991
2 66736  97.4252 170.1606 0002688 159.0562 201.0784 15.20121484 19349
FLOCK 4H-34             
1 66737U 25276BZ  26095.18070908  .00007455  00000+0  35273-3 0  9999
2 66737  97.4265 170.1522 0002666 165.1928 194.9385 15.19649921 18593
FLOCK 4H-35             
1 66738U 25276CA  26095.23440226  .00008458  00000+0  39715-3 0  9999
2 66738  97.4228 170.1689 0002580 149.1380 211.0007 15.19870649 18647
FLOCK 4H-36             
1 66739U 25276CB  26095.19071006  .00008226  00000+0  38921-3 0  9992
2 66739  97.4276 170.1548 0002474 177.3386 182.7862 15.19614679 19346
